[
    {
        "Altitude(m)": 610399.5251731589,
        "Argument of Periapsis(deg)": 0.0,
        "Eccentricity": 0.0,
        "Inclination(deg)": 60.0,
        "Latitude(deg)": 52.11132483345404,
        "Longitude(deg)": -152.41558212381818,
        "Mean Anomaly(deg)": 65.45449999999998,
        "RAAN(deg)": 260.0,
        "Satellite Name": "Test1 1148",
        "Satellite Number": 1148,
        "Semi-Major Axis(m)": 6980739.136638005,
        "Time(s)": 0
    },
    {
        "Altitude(m)": 610481.6758394,
        "Argument of Periapsis(deg)": 0.00010418945913296404,
        "Eccentricity": 0.0,
        "Inclination(deg)": 60.0,
        "Latitude(deg)": 52.4709258931853,
        "Longitude(deg)": -151.6334446304742,
        "Mean Anomaly(deg)": 66.07460614546183,
        "RAAN(deg)": 259.99957995086027,
        "Satellite Name": "Test1 1148",
        "Satellite Number": 1148,
        "Semi-Major Axis(m)": 6980739.136638005,
        "Time(s)": 10
    }
]